# Made by eph2tle, compiled Jan 26 2025 13:45:38
# Run at Mon Jan 27 15:49:30 2025 UTC
#
#    The following TLEs (Two-Line Elements) were generated by fitting
# a numerically-integrated ephemeris,  based on the orbit given below,
# to the SDP4/SGP4 models.  Each TLE is good for the interval between
# its epoch and the epoch of the subsequent TLE (usually one day).
# The maximum deviation between the numerically integrated ephemerides
# and the TLE-based ephemeris, in kilometers,  is given for each TLE
# as the "worst residual".
#
#    This fitting is done using the 'eph2tle' code packaged with Find_Orb.
# The code has details on how the TLEs were computed :
#
#    https://github.com/Bill-Gray/find_orb/eph2tle.cpp
#
#    Be warned:  the error given is that between the numerically
# integrated ephems and the TLE model.  There will usually be at
# least some additional difference between the ephems and the actual
# motion of the satellite,  especially if the ephemerides are based
# on a short arc.  If the following orbital elements say something
# like "[based on] 10 observations 2015 Jan. 1-13",  and the TLEs
# are for 2015 May,  the extrapolation may be tenuous at best.  If
# your application requires a specific level of accuracy,  you may
# want to contact me;  I can give you some idea as to the fit of the
# underlying data (and possibly TLEs based on newer data).
#
#   You can usually find the underlying observational data,  and the
# fitted orbit,  residuals,  ephemerides,  and sometimes some comments
# about the object,  among the pages listed at
#
#    https://www.projectpluto.com/pluto/mpecs/pseudo.htm
#
#    Also,  if you use a TLE outside the "correct" time range (between
# its MJD and that of the next TLE),  all bets are off.  I've carefully
# computed and minimized the worst error over the "correct" time frame,
# but the ephemeris may (or may not) diverge wildly outside of it.
#
# Ephem range: 60691.000000 60721.000000 1.000000
# Created Mon Jan 27 10:49:25 2025
# Ephemeris start: 16 Jan 2025  0:00:00
# Ephemeris end:   15 Feb 2025  0:00:00
# Times are all TDT
# Positions/velocities are in equatorial J2000
# Orbital elements:  2025-010A = NORAD 62716 = Blue Ghost
#    Perigee 2025 Jan 23.816152 +/- 4.93e-6 TT = 19:35:15.5 (JD 2460699.316152)
# dx:     -0.858 +/- 0.181   dy:      -3.07 +/- 0.0219
# dz:     -0.743 +/- 0.0286 m/s   T0: 2025 Jan 23.815 +/- 0.00204
# Epoch 2025 Jan 26.0 TT = JDT 2460701.5                           Find_Orb
# M  95.949793598 +/- 0.0013          (J2000 equator)
# n  43.936118116 +/- 0.000625        Peri.  347.838442 +/- 0.00023
# a171681.0592 +/- 1.63               Node   358.077957 +/- 0.00007
# e   0.92518449 +/- 5.55e-7          Incl.   35.786529 +/- 0.00007
# P   8.1936d                H 28.67  G  0.15   U  7.8
# q 12844.40529 +/- 0.176    Q 330517.7131 +/- 3.11
# 100 of 160 observations 2025 Jan. 20-27; mean residual 0".219
#
# 1 NoradU COSPAR   Epoch.epoch     dn/dt/2  d2n/dt2/6 BSTAR    T El# C
# 2 NoradU Inclina RAAscNode Eccent  ArgPeri MeanAno  MeanMotion Rev# C

# Worst residual: 13.57 km
# MJD 60691.000000 (2025 Jan 16  0:00)
2025-010A = NORAD 62716 = Blue Ghost
1 62716U 25010A   25016.49919926  .00000000  00000-0  00000-0 0 25845
2 62716 035.9624 358.6069 9562468 347.5860 048.4655 00.12537950    07

# Worst residual: 129.94 km
# MJD 60692.000000 (2025 Jan 17  0:00)
2025-010A = NORAD 62716 = Blue Ghost
1 62716U 25010A   25017.49919926  .00000000  00000-0  00000-0 0 25846
2 62716 036.2980 358.3690 9566864 347.9297 091.7547 00.12388766    05

# Worst residual: 185.30 km
# MJD 60693.000000 (2025 Jan 18  0:00)
2025-010A = NORAD 62716 = Blue Ghost
1 62716U 25010A   25018.49919926  .00000000  00000-0  00000-0 0 25847
2 62716 036.7951 358.1009 9517587 348.9242 131.3272 00.12105691    09

# Worst residual: 92.16 km
# MJD 60694.000000 (2025 Jan 19  0:00)
2025-010A = NORAD 62716 = Blue Ghost
1 62716U 25010A   25019.49919926  .00000000  00000-0  00000-0 0 25848
2 62716 036.5922 358.1823 9404557 349.4306 172.1737 00.11947193    07

# Worst residual: 48.45 km
# MJD 60695.000000 (2025 Jan 20  0:00)
2025-010A = NORAD 62716 = Blue Ghost
1 62716U 25010A   25020.49919926  .00000000  00000-0  00000-0 0 25840
2 62716 036.2055 358.2924 9332684 349.3232 214.9660 00.11877511    08

# Worst residual: 23.99 km
# MJD 60696.000000 (2025 Jan 21  0:00)
2025-010A = NORAD 62716 = Blue Ghost
1 62716U 25010A   25021.49919926  .00000000  00000-0  00000-0 0 25841
2 62716 036.0568 358.3080 9299390 349.1574 257.8485 00.11826621    09

# Worst residual: 14.27 km
# MJD 60697.000000 (2025 Jan 22  0:00)
2025-010A = NORAD 62716 = Blue Ghost
1 62716U 25010A   25022.49919926  .00000000  00000-0  00000-0 0 25842
2 62716 035.9790 358.2978 9284693 349.0389 300.3575 00.11791615    00

# Worst residual: 41.86 km
# MJD 60698.000000 (2025 Jan 23  0:00)
2025-010A = NORAD 62716 = Blue Ghost
1 62716U 25010A   25023.49919926  .00000000  00000-0  00000-0 0 25843
2 62716 035.9752 358.2864 9275289 348.9633 342.5647 00.11816695    07

# Worst residual: 16.45 km
# MJD 60699.000000 (2025 Jan 24  0:00)
2025-010A = NORAD 62716 = Blue Ghost
1 62716U 25010A   25024.49919926  .00000000  00000-0  00000-0 0 25844
2 62716 035.9727 358.2453 9257285 348.9172 026.2252 00.12277766    06

# Worst residual: 14.99 km
# MJD 60700.000000 (2025 Jan 25  0:00)
2025-010A = NORAD 62716 = Blue Ghost
1 62716U 25010A   25025.49919926  .00000000  00000-0  00000-0 0 25845
2 62716 036.0114 358.2033 9266352 348.8929 069.9940 00.12251421    04

# Worst residual: 10.73 km
# MJD 60701.000000 (2025 Jan 26  0:00)
2025-010A = NORAD 62716 = Blue Ghost
1 62716U 25010A   25026.49919926  .00000000  00000-0  00000-0 0 25846
2 62716 036.0572 358.1655 9274551 348.9244 113.5730 00.12234940    02

# Worst residual: 9.27 km
# MJD 60702.000000 (2025 Jan 27  0:00)
2025-010A = NORAD 62716 = Blue Ghost
1 62716U 25010A   25027.49919926  .00000000  00000-0  00000-0 0 25847
2 62716 036.0649 358.1538 9275724 348.9846 157.1205 00.12225647    03

# Worst residual: 10.70 km
# MJD 60703.000000 (2025 Jan 28  0:00)
2025-010A = NORAD 62716 = Blue Ghost
1 62716U 25010A   25028.49919926  .00000000  00000-0  00000-0 0 25848
2 62716 036.0271 358.1581 9268419 349.0150 200.8716 00.12218045    02

# Worst residual: 23.63 km
# MJD 60704.000000 (2025 Jan 29  0:00)
2025-010A = NORAD 62716 = Blue Ghost
1 62716U 25010A   25029.49919926  .00000000  00000-0  00000-0 0 25849
2 62716 035.9749 358.1600 9257387 348.9663 245.0132 00.12193069    02

# Worst residual: 67.61 km
# MJD 60705.000000 (2025 Jan 30  0:00)
2025-010A = NORAD 62716 = Blue Ghost
1 62716U 25010A   25030.49919926  .00000000  00000-0  00000-0 0 25841
2 62716 035.9660 358.1518 9251621 348.8217 289.5682 00.12092444    09

# Worst residual: 322.14 km
# MJD 60706.000000 (2025 Jan 31  0:00)
2025-010A = NORAD 62716 = Blue Ghost
1 62716U 25010A   25031.49919926  .00000000  00000-0  00000-0 0 25842
2 62716 035.9674 358.1524 9272527 348.4913 334.2480 00.11483176    07

# Worst residual: 261.84 km
# MJD 60707.000000 (2025 Feb  1  0:00)
2025-010A = NORAD 62716 = Blue Ghost
1 62716U 25010A   25032.49919926  .00000000  00000-0  00000-0 0 25843
2 62716 036.0604 358.0893 9298909 349.6653 015.4766 00.11493939    09

# Worst residual: 54.35 km
# MJD 60708.000000 (2025 Feb  2  0:00)
2025-010A = NORAD 62716 = Blue Ghost
1 62716U 25010A   25033.49919926  .00000000  00000-0  00000-0 0 25844
2 62716 036.0801 358.1134 9262942 349.5497 060.5874 00.12096596    00

# Worst residual: 23.82 km
# MJD 60709.000000 (2025 Feb  3  0:00)
2025-010A = NORAD 62716 = Blue Ghost
1 62716U 25010A   25034.49919926  .00000000  00000-0  00000-0 0 25845
2 62716 036.0489 358.1329 9261600 349.4230 105.1278 00.12188588    09

# Worst residual: 6.63 km
# MJD 60710.000000 (2025 Feb  4  0:00)
2025-010A = NORAD 62716 = Blue Ghost
1 62716U 25010A   25035.49919926  .00000000  00000-0  00000-0 0 25846
2 62716 036.0707 358.1142 9267175 349.3956 149.2450 00.12209550    06

# Worst residual: 7.90 km
# MJD 60711.000000 (2025 Feb  5  0:00)
2025-010A = NORAD 62716 = Blue Ghost
1 62716U 25010A   25036.49919926  .00000000  00000-0  00000-0 0 25847
2 62716 036.1118 358.0901 9273165 349.4379 192.9655 00.12215276    05

# Worst residual: 12.93 km
# MJD 60712.000000 (2025 Feb  6  0:00)
2025-010A = NORAD 62716 = Blue Ghost
1 62716U 25010A   25037.49919926  .00000000  00000-0  00000-0 0 25848
2 62716 036.1181 358.0777 9271376 349.4942 236.4881 00.12221806    05

# Worst residual: 14.58 km
# MJD 60713.000000 (2025 Feb  7  0:00)
2025-010A = NORAD 62716 = Blue Ghost
1 62716U 25010A   25038.49919926  .00000000  00000-0  00000-0 0 25849
2 62716 036.0842 358.0686 9260536 349.4841 280.1080 00.12226559    08

# Worst residual: 19.50 km
# MJD 60714.000000 (2025 Feb  8  0:00)
2025-010A = NORAD 62716 = Blue Ghost
1 62716U 25010A   25039.49919926  .00000000  00000-0  00000-0 0 25840
2 62716 036.0638 358.0559 9251288 349.3939 323.9931 00.12194367    03

# Worst residual: 54.02 km
# MJD 60715.000000 (2025 Feb  9  0:00)
2025-010A = NORAD 62716 = Blue Ghost
1 62716U 25010A   25040.49919926  .00000000  00000-0  00000-0 0 25842
2 62716 036.0954 358.0400 9255768 349.5342 007.7487 00.12202388    02

# Worst residual: 21.41 km
# MJD 60716.000000 (2025 Feb 10  0:00)
2025-010A = NORAD 62716 = Blue Ghost
1 62716U 25010A   25041.49919926  .00000000  00000-0  00000-0 0 25843
2 62716 036.1785 357.9181 9271065 349.3557 051.3509 00.12187457    02

# Worst residual: 28.47 km
# MJD 60717.000000 (2025 Feb 11  0:00)
2025-010A = NORAD 62716 = Blue Ghost
1 62716U 25010A   25042.49919926  .00000000  00000-0  00000-0 0 25844
2 62716 036.3045 357.8158 9287792 349.2928 095.0056 00.12196983    07

# Worst residual: 74.30 km
# MJD 60718.000000 (2025 Feb 12  0:00)
2025-010A = NORAD 62716 = Blue Ghost
1 62716U 25010A   25043.49919926  .00000000  00000-0  00000-0 0 25845
2 62716 036.6557 357.6188 9329574 349.2272 138.9419 00.12242060    04

# Worst residual: 181.26 km
# MJD 60719.000000 (2025 Feb 13  0:00)
2025-010A = NORAD 62716 = Blue Ghost
1 62716U 25010A   25044.49919926  .00000000  00000-0  00000-0 0 25846
2 62716 037.6542 357.2271 9434093 349.4471 181.9556 00.12326127    01

# Worst residual: 244.95 km
# MJD 60720.000000 (2025 Feb 14  0:00)
2025-010A = NORAD 62716 = Blue Ghost
1 62716U 25010A   25045.49919926  .00000000  00000-0  00000-0 0 25847
2 62716 039.1505 356.8122 9557457 350.3816 220.6893 00.12540820    04
Avg worst resid: 67.70 km
Worst residual in entire run: 322.14 km on MJD 60706.0
       1     3     10    30    100   300   1K    3K    10K   km
     0     0     3    14     7     5     1     0     0     0
